ONEWEB-0207             
1 48242U 21031AJ  25354.68199926  .00000190  00000+0  47898-3 0  9994
2 48242  87.9005 325.2540 0001740  93.8680 266.2649 13.14502917224846
ONEWEB-0208             
1 48243U 21031AK  25354.43540083 -.00002689  00000+0 -72895-2 0  9993
2 48243  87.9002 325.3177 0001634  77.9733 282.1579 13.14514980224825
ONEWEB-0200             
1 48244U 21031AL  25354.85563935  .00000003  00000+0 -27497-4 0  9998
2 48244  87.8997 325.2235 0001685  82.9665 277.1656 13.14502112224800
ONEWEB-0217             
1 48245U 21031AM  25354.18641112 -.00000235  00000+0 -66884-3 0  9999
2 48245  87.9007 325.3519 0001568  75.3432 284.7871 13.14499859224668
ONEWEB-0211             
1 48767U 21045A   25354.84437551  .00000049  00000+0  94051-4 0  9995
2 48767  87.9011 294.7046 0001760  62.0215 298.1094 13.16137878220981
ONEWEB-0223             
1 48768U 21045B   25354.76278049 -.00000046  00000+0 -15542-3 0  9998
2 48768  87.9010 294.7866 0002030  62.8083 297.3254 13.15549229220944
ONEWEB-0230             
1 48769U 21045C   25354.81030214  .00000021  00000+0  21155-4 0  9994
2 48769  87.9000 294.8064 0001933  81.2155 278.9194 13.15550263221210
ONEWEB-0237             
1 48770U 21045D   25354.79921333 -.00000139  00000+0 -40353-3 0  9996
2 48770  87.8999 294.8091 0002024  71.0245 289.1105 13.15550564220935
